start=new Date('2022-05-09T00:00:00.000Z').valueOf();
sats=[{"SITE":"AFETR","COUNTRY_CODE":"US","NORAD_CAT_ID":"46581","CLASSIFICATION_TYPE":"U","MEAN_ELEMENT_THEORY":"SGP4","TLE_LINE2":"2 46581  53.0549 326.4937 0001255  56.3078 303.8031 15.06394692 88603","REV_AT_EPOCH":"8860","PERIAPSIS":"546.361","ELEMENT_SET_NO":"999","OBJECT_NAME":"STARLINK-1712","ECCENTRICITY":"0.00012550","SEMIMAJOR_AXIS":"6925.365","OBJECT_ID":"2020-070BB","REF_FRAME":"TEME","FILE":"3435622","EPOCH":"2022-05-08T13:43:07.180032","APOAPSIS":"548.099","LAUNCH_DATE":"2020-10-06","MEAN_ANOMALY":"303.8031","MEAN_MOTION_DDOT":"0.0000000000000","MEAN_MOTION":"15.06394692","ARG_OF_PERICENTER":"56.3078","EPHEMERIS_TYPE":"0","INCLINATION":"53.0549","GP_ID":"202990843","RCS_SIZE":"LARGE","CENTER_NAME":"EARTH","PERIOD":"95.592","MEAN_MOTION_DOT":"-0.00000787","RA_OF_ASC_NODE":"326.4937","OBJECT_TYPE":"PAYLOAD","BSTAR":"-0.00003394700000","TLE_LINE1":"1 46581U 20070BB  22128.57161088 -.00000787  00000-0 -33947-4 0  9998","TIME_SYSTEM":"UTC","DECAY_DATE":null},{"FILE":"3435746","EPOCH":"2022-05-08T13:21:53.137728","APOAPSIS":"548.337","SEMIMAJOR_AXIS":"6925.365","OBJECT_ID":"2020-070BC","REF_FRAME":"TEME","ELEMENT_SET_NO":"999","PERIAPSIS":"546.122","OBJECT_NAME":"STARLINK-1728","ECCENTRICITY":"0.00015990","TLE_LINE2":"2 46582  53.0592 326.5471 0001599  67.1254 292.9903 15.06394684 88600","REV_AT_EPOCH":"8860","MEAN_ELEMENT_THEORY":"SGP4","NORAD_CAT_ID":"46582","CLASSIFICATION_TYPE":"U","SITE":"AFETR","COUNTRY_CODE":"US","TLE_LINE1":"1 46582U 20070BC  22128.55686502  .00000166  00000-0  30069-4 0  9991","TIME_SYSTEM":"UTC","DECAY_DATE":null,"BSTAR":"0.00003006900000","OBJECT_TYPE":"PAYLOAD","CENTER_NAME":"EARTH","PERIOD":"95.592","MEAN_MOTION_DOT":"0.00000166","RA_OF_ASC_NODE":"326.5471","INCLINATION":"53.0592","GP_ID":"203015486","RCS_SIZE":"LARGE","EPHEMERIS_TYPE":"0","ARG_OF_PERICENTER":"67.1254","MEAN_MOTION":"15.06394684","MEAN_MOTION_DDOT":"0.0000000000000","LAUNCH_DATE":"2020-10-06","MEAN_ANOMALY":"292.9903"},{"COUNTRY_CODE":"US","SITE":"AFETR","MEAN_ELEMENT_THEORY":"SGP4","NORAD_CAT_ID":"46583","CLASSIFICATION_TYPE":"U","PERIAPSIS":"546.200","ELEMENT_SET_NO":"999","ECCENTRICITY":"0.00014900","OBJECT_NAME":"STARLINK-1729","TLE_LINE2":"2 46583  53.0573 347.5111 0001490  73.0951 287.0201 15.06394040 88280","REV_AT_EPOCH":"8828","FILE":"3435746","APOAPSIS":"548.264","EPOCH":"2022-05-08T08:11:22.858656","OBJECT_ID":"2020-070BD","SEMIMAJOR_AXIS":"6925.367","REF_FRAME":"TEME","MEAN_MOTION":"15.06394040","MEAN_ANOMALY":"287.0201","LAUNCH_DATE":"2020-10-06","MEAN_MOTION_DDOT":"0.0000000000000","EPHEMERIS_TYPE":"0","ARG_OF_PERICENTER":"73.0951","CENTER_NAME":"EARTH","MEAN_MOTION_DOT":"0.00001370","PERIOD":"95.593","RA_OF_ASC_NODE":"347.5111","RCS_SIZE":"LARGE","INCLINATION":"53.0573","GP_ID":"203015738","TIME_SYSTEM":"UTC","TLE_LINE1":"1 46583U 20070BD  22128.34123679  .00001370  00000-0  11089-3 0  9998","DECAY_DATE":null,"BSTAR":"0.00011089000000","OBJECT_TYPE":"PAYLOAD"},{"RCS_SIZE":"LARGE","GP_ID":"202990862","INCLINATION":"53.0555","CENTER_NAME":"EARTH","RA_OF_ASC_NODE":"326.5391","PERIOD":"95.592","MEAN_MOTION_DOT":"0.00001647","BSTAR":"0.00012943000000","OBJECT_TYPE":"PAYLOAD","TIME_SYSTEM":"UTC","TLE_LINE1":"1 46584U 20070BE  22128.56054886  .00001647  00000-0  12943-3 0  9993","DECAY_DATE":null,"LAUNCH_DATE":"2020-10-06","MEAN_ANOMALY":"287.0171","MEAN_MOTION_DDOT":"0.0000000000000","MEAN_MOTION":"15.06395730","ARG_OF_PERICENTER":"73.0976","EPHEMERIS_TYPE":"0","TLE_LINE2":"2 46584  53.0555 326.5391 0001440  73.0976 287.0171 15.06395730 88294","REV_AT_EPOCH":"8829","PERIAPSIS":"546.229","ELEMENT_SET_NO":"999","ECCENTRICITY":"0.00014400","OBJECT_NAME":"STARLINK-1732","OBJECT_ID":"2020-070BE","SEMIMAJOR_AXIS":"6925.362","REF_FRAME":"TEME","FILE":"3435623","APOAPSIS":"548.224","EPOCH":"2022-05-08T13:27:11.421504","COUNTRY_CODE":"US","SITE":"AFETR","NORAD_CAT_ID":"46584","CLASSIFICATION_TYPE":"U","MEAN_ELEMENT_THEORY":"SGP4"},{"REV_AT_EPOCH":"8833","TLE_LINE2":"2 46585  53.0558 325.5603 0001390  72.9949 287.1192 15.06404145 88335","ELEMENT_SET_NO":"999","PERIAPSIS":"546.238","ECCENTRICITY":"0.00013900","OBJECT_NAME":"STARLINK-1736","OBJECT_ID":"2020-070BF","SEMIMAJOR_AXIS":"6925.336","REF_FRAME":"TEME","FILE":"3436061","EPOCH":"2022-05-08T18:40:20.750016","APOAPSIS":"548.163","COUNTRY_CODE":"US","SITE":"AFETR","NORAD_CAT_ID":"46585","CLASSIFICATION_TYPE":"U","MEAN_ELEMENT_THEORY":"SGP4","RCS_SIZE":"LARGE","GP_ID":"203027030","INCLINATION":"53.0558","CENTER_NAME":"EARTH","MEAN_MOTION_DOT":"0.00000506","PERIOD":"95.592","RA_OF_ASC_NODE":"325.5603","BSTAR":"0.00005287500000","OBJECT_TYPE":"PAYLOAD","TIME_SYSTEM":"UTC","TLE_LINE1":"1 46585U 20070BF  22128.77801794  .00000506  00000-0  52875-4 0  9997","DECAY_DATE":null,"LAUNCH_DATE":"2020-10-06","MEAN_MOTION_DDOT":"0.0000000000000","MEAN_ANOMALY":"287.1192","MEAN_MOTION":"15.06404145","ARG_OF_PERICENTER":"72.9949","EPHEMERIS_TYPE":"0"},{"FILE":"3435627","APOAPSIS":"548.214","EPOCH":"2022-05-08T13:37:48.813312","OBJECT_ID":"2020-070BG","SEMIMAJOR_AXIS":"6925.390","REF_FRAME":"TEME","PERIAPSIS":"546.295","ELEMENT_SET_NO":"999","ECCENTRICITY":"0.00013850","OBJECT_NAME":"STARLINK-1737","TLE_LINE2":"2 46586  53.0559 326.5103 0001385 107.7513 252.3628 15.06386607 88285","REV_AT_EPOCH":"8828","MEAN_ELEMENT_THEORY":"SGP4","NORAD_CAT_ID":"46586","CLASSIFICATION_TYPE":"U","COUNTRY_CODE":"US","SITE":"AFETR","TIME_SYSTEM":"UTC","TLE_LINE1":"1 46586U 20070BG  22128.56792608 -.00000518  00000-0 -15862-4 0  9998","DECAY_DATE":null,"OBJECT_TYPE":"PAYLOAD","BSTAR":"-0.00001586200000","CENTER_NAME":"EARTH","RA_OF_ASC_NODE":"326.5103","PERIOD":"95.593","MEAN_MOTION_DOT":"-0.00000518","RCS_SIZE":"LARGE","INCLINATION":"53.0559","GP_ID":"202990892","EPHEMERIS_TYPE":"0","ARG_OF_PERICENTER":"107.7513","MEAN_MOTION":"15.06386607","LAUNCH_DATE":"2020-10-06","MEAN_MOTION_DDOT":"0.0000000000000","MEAN_ANOMALY":"252.3628"},{"DECAY_DATE":null,"TLE_LINE1":"1 46588U 20070BJ  22128.81487211 -.00000585  00000-0 -20401-4 0  9998","TIME_SYSTEM":"UTC","OBJECT_TYPE":"PAYLOAD","BSTAR":"-0.00002040100000","PERIOD":"95.591","RA_OF_ASC_NODE":"325.3963","MEAN_MOTION_DOT":"-0.00000585","CENTER_NAME":"EARTH","INCLINATION":"53.0550","GP_ID":"203027077","RCS_SIZE":"LARGE","EPHEMERIS_TYPE":"0","ARG_OF_PERICENTER":"65.5692","MEAN_MOTION":"15.06413716","LAUNCH_DATE":"2020-10-06","MEAN_ANOMALY":"294.5449","MEAN_MOTION_DDOT":"0.0000000000000","EPOCH":"2022-05-08T19:33:24.950304","APOAPSIS":"548.181","FILE":"3436064","REF_FRAME":"TEME","SEMIMAJOR_AXIS":"6925.307","OBJECT_ID":"2020-070BJ","OBJECT_NAME":"STARLINK-1746","ECCENTRICITY":"0.00014570","ELEMENT_SET_NO":"999","PERIAPSIS":"546.163","REV_AT_EPOCH":"8865","TLE_LINE2":"2 46588  53.0550 325.3963 0001457  65.5692 294.5449 15.06413716 88650","MEAN_ELEMENT_THEORY":"SGP4","NORAD_CAT_ID":"46588","CLASSIFICATION_TYPE":"U","SITE":"AFETR","COUNTRY_CODE":"US"},{"BSTAR":"0.00008934900000","OBJECT_TYPE":"PAYLOAD","DECAY_DATE":null,"TIME_SYSTEM":"UTC","TLE_LINE1":"1 46589U 20070BK  22128.54212313  .00001049  00000-0  89349-4 0  9998","RCS_SIZE":"LARGE","GP_ID":"203015995","INCLINATION":"53.0559","MEAN_MOTION_DOT":"0.00001049","PERIOD":"95.592","RA_OF_ASC_NODE":"326.6198","CENTER_NAME":"EARTH","ARG_OF_PERICENTER":"76.3525","EPHEMERIS_TYPE":"0","MEAN_MOTION_DDOT":"0.0000000000000","LAUNCH_DATE":"2020-10-06","MEAN_ANOMALY":"283.7634","MEAN_MOTION":"15.06396981","REF_FRAME":"TEME","OBJECT_ID":"2020-070BK","SEMIMAJOR_AXIS":"6925.358","EPOCH":"2022-05-08T13:00:39.438432","APOAPSIS":"548.280","FILE":"3435746","TLE_LINE2":"2 46589  53.0559 326.6198 0001526  76.3525 283.7634 15.06396981 88599","REV_AT_EPOCH":"8859","ECCENTRICITY":"0.00015260","OBJECT_NAME":"STARLINK-1749","PERIAPSIS":"546.166","ELEMENT_SET_NO":"999","NORAD_CAT_ID":"46589","CLASSIFICATION_TYPE":"U","MEAN_ELEMENT_THEORY":"SGP4","COUNTRY_CODE":"US","SITE":"AFETR"},{"EPOCH":"2022-05-08T06:22:34.506624","APOAPSIS":"548.180","FILE":"3435746","REF_FRAME":"TEME","SEMIMAJOR_AXIS":"6925.328","OBJECT_ID":"2020-070BM","OBJECT_NAME":"STARLINK-1755","ECCENTRICITY":"0.00014250","ELEMENT_SET_NO":"999","PERIAPSIS":"546.207","TLE_LINE2":"2 46591  53.0552 327.8578 0001425  75.1749 284.9398 15.06406586 87618","REV_AT_EPOCH":"8761","MEAN_ELEMENT_THEORY":"SGP4","NORAD_CAT_ID":"46591","CLASSIFICATION_TYPE":"U","SITE":"AFETR","COUNTRY_CODE":"US","DECAY_DATE":null,"TLE_LINE1":"1 46591U 20070BM  22128.26567716 -.00000877  00000-0 -39981-4 0  9997","TIME_SYSTEM":"UTC","OBJECT_TYPE":"PAYLOAD","BSTAR":"-0.00003998100000","PERIOD":"95.592","RA_OF_ASC_NODE":"327.8578","MEAN_MOTION_DOT":"-0.00000877","CENTER_NAME":"EARTH","GP_ID":"203014744","INCLINATION":"53.0552","RCS_SIZE":"LARGE","EPHEMERIS_TYPE":"0","ARG_OF_PERICENTER":"75.1749","MEAN_MOTION":"15.06406586","MEAN_MOTION_DDOT":"0.0000000000000","LAUNCH_DATE":"2020-10-06","MEAN_ANOMALY":"284.9398"},{"MEAN_MOTION":"15.06397069","MEAN_MOTION_DDOT":"0.0000000000000","LAUNCH_DATE":"2020-10-18","MEAN_ANOMALY":"315.5052","EPHEMERIS_TYPE":"0","ARG_OF_PERICENTER":"44.6091","CENTER_NAME":"EARTH","PERIOD":"95.592","RA_OF_ASC_NODE":"55.4525","MEAN_MOTION_DOT":"0.00000784","GP_ID":"203023290","INCLINATION":"53.0558","RCS_SIZE":"LARGE","TLE_LINE1":"1 46671U 20073B   22128.80195145  .00000784  00000-0  71541-4 0  9995","TIME_SYSTEM":"UTC","DECAY_DATE":null,"OBJECT_TYPE":"PAYLOAD","BSTAR":"0.00007154100000","SITE":"AFETR","COUNTRY_CODE":"US","MEAN_ELEMENT_THEORY":"SGP4","NORAD_CAT_ID":"46671","CLASSIFICATION_TYPE":"U","ELEMENT_SET_NO":"999","PERIAPSIS":"545.899","OBJECT_NAME":"STARLINK-1715","ECCENTRICITY":"0.00019110","REV_AT_EPOCH":"8639","TLE_LINE2":"2 46671  53.0558  55.4525 0001911  44.6091 315.5052 15.06397069 86397","FILE":"3435940","EPOCH":"2022-05-08T19:14:48.605280","APOAPSIS":"548.546","SEMIMAJOR_AXIS":"6925.358","OBJECT_ID":"2020-073B","REF_FRAME":"TEME"}];
